KUIPER-00167            
1 65780U 25217U   26063.31195715  .00011776  00000+0  15692-2 0  9998
2 65780  51.8970  69.3476 0000600  47.1432 312.9580 14.79981066 24049
KUIPER-00168            
1 65781U 25217V   26063.39828506  .00000196  00000+0  54801-4 0  9999
2 65781  51.9019  51.4983 0000891  86.2031 273.9033 14.79921368 24308
KUIPER-00169            
1 65782U 25217W   26063.39350035  .00006700  00000+0  90985-3 0  9996
2 65782  51.9012  56.5266 0000752 101.9496 258.1550 14.79797620 24231
KUIPER-00170            
1 65783U 25217X   26063.18454015  .00005994  00000+0  81460-3 0  9999
2 65783  51.8986  62.4276 0000830  89.0314 271.0743 14.79932353 24131
KUIPER-00172            
1 65785U 25217Z   26063.50001156 -.02151641  00000+0 -24374+0 0  9993
2 65785  51.8972  41.8805 0002505 304.1192 156.6742 14.90044163  2930
KUIPER-00173            
1 65786U 25217AA  26063.22489442  .00004389  00000+0  57215-3 0  9997
2 65786  51.9015  56.5807 0001279 132.7696 227.3375 14.82266183 24218
KUIPER-00174            
1 65787U 25217AB  26063.36454667  .00009217  00000+0  12366-2 0  9996
2 65787  51.9037  51.6721 0001143  65.4548 294.6533 14.79924400 24292
KUIPER-00176            
1 65788U 25217AC  26063.41570962 -.00000645  00000+0 -55603-4 0  9991
2 65788  51.9003  66.4199 0001066  62.1509 297.9562 14.79950039 24097
KUIPER-00101            
1 65947U 25228A   26063.29292593  .00005605  00000+0  76357-3 0  9994
2 65947  51.9013  24.4415 0000588  99.1192 260.9837 14.79936650 22430
KUIPER-00113            
1 65948U 25228B   26063.26451943  .00008229  00000+0  11060-2 0  9992
2 65948  51.8996  19.5839 0000844 100.4393 259.6664 14.79974570 22491
KUIPER-00117            
1 65949U 25228C   26063.29563498  .00008705  00000+0  11689-2 0  9991
2 65949  51.8995  21.9491 0000942  84.5381 275.5689 14.79950789 22467
KUIPER-00121            
1 65950U 25228D   26063.06461622  .00007490  00000+0  10102-2 0  9993
2 65950  51.9010  17.9658 0001319 100.2403 259.8708 14.79941915 22501
KUIPER-00122            
1 65951U 25228E   26063.18778226  .00005118  00000+0  70208-3 0  9997
2 65951  51.9008  27.3878 0000590 100.6959 259.4070 14.79800048 22383
KUIPER-00123            
1 65952U 25228F   26062.20993577  .00006203  00000+0  84191-3 0  9990
2 65952  51.8995  31.7465 0001031  91.7301 268.3779 14.79937341 22237
KUIPER-00124            
1 65953U 25228G   26063.09573571  .00007397  00000+0  99794-3 0  9997
2 65953  51.9004  20.3137 0000617  96.1108 263.9925 14.79945373 22477
KUIPER-00125            
1 65954U 25228H   26063.04439807  .00007590  00000+0  10237-2 0  9995
2 65954  51.9022   5.5670 0000946 110.4221 249.6843 14.79926388 22673
KUIPER-00126            
1 65955U 25228J   26063.25917013  .00002210  00000+0  31869-3 0  9998
2 65955  51.9025  24.6151 0000653  96.7697 263.3340 14.79942159 22423
